STARLINK-30428          
1 57906U 23146R   26148.27009043  .00000721  00000+0  35733-4 0  9993
2 57906  43.0024 225.0592 0001667 273.3872  86.6789 15.27578379148167
STARLINK-30482          
1 57907U 23146S   26148.28165260  .00007417  00000+0  27869-3 0  9998
2 57907  43.0017 225.1483 0001786 260.9112  99.1538 15.27590821148179
STARLINK-30464          
1 57908U 23146T   26148.21320635  .00001180  00000+0  52401-4 0  9993
2 57908  42.9946 228.8926 0001140  74.1231 285.9746 15.27584145148114
STARLINK-30463          
1 57909U 23146U   26148.28936589  .00002889  00000+0  11447-3 0  9993
2 57909  42.9998 225.2030 0001373 271.1164  88.9530 15.27580921148166
STARLINK-30453          
1 57910U 23146V   26148.27314963 -.00005939  00000+0 -20635-3 0  9990
2 57910  43.0017 221.6827 0002019 276.9241  83.1381 15.27593617148205
STARLINK-30478          
1 57911U 23146W   26148.23282301 -.00004626  00000+0 -15860-3 0  9993
2 57911  42.9957 224.7755 0000195 278.9426  81.1404 15.27600460149223
STARLINK-30477          
1 57912U 23146X   26148.23202917  .00025081  00000+0  91680-3 0  9999
2 57912  43.0008 221.3699 0001614 265.7977  94.2691 15.27616920149260
STARLINK-30450          
1 57913U 23147A   26148.28018372  .00001054  00000+0  47806-4 0  9992
2 57913  43.0019 235.4436 0001266 195.4350 164.6463 15.27583517148774
STARLINK-30483          
1 57914U 23147B   26148.16372510  .00000734  00000+0  36184-4 0  9998
2 57914  43.0037  90.8004 0001064 282.3441  77.7291 15.27581437150463
STARLINK-30454          
1 57915U 23147C   26147.24171679  .00001591  00000+0  67325-4 0  9993
2 57915  42.9900 241.3986 0000988 179.8708 180.2144 15.27580764148616
STARLINK-30501          
1 57917U 23147E   26148.22508384  .00017368  00000+0  63896-3 0  9998
2 57917  43.0008 235.8874 0000772 288.4353  71.6415 15.27591315148783
STARLINK-30499          
1 57918U 23147F   26148.21127939  .00008373  00000+0  31338-3 0  9993
2 57918  43.0011  91.1252 0001127 270.3486  89.7237 15.27587249150497
STARLINK-30496          
1 57919U 23147G   26147.32124006  .00000450  00000+0  25872-4 0  9992
2 57919  43.0029 241.1430 0001369 269.6521  90.4174 15.27575542148658
STARLINK-30485          
1 57920U 23147H   26148.30588762  .00000551  00000+0  29539-4 0  9992
2 57920  43.0016 235.6359 0001652 237.0214 123.0479 15.27572776148801
STARLINK-30492          
1 57921U 23147J   26148.31231191 -.00000229  00000+0  11999-5 0  9990
2 57921  43.0054 235.6821 0002051 271.4952  88.5665 15.27572392148775
STARLINK-30440          
1 57923U 23147L   26148.26619738  .00001549  00000+0  65784-4 0  9998
2 57923  42.9974 236.1841 0000444 194.1795 165.9045 15.27576604148798
STARLINK-30487          
1 57924U 23147M   26148.31567064  .00001385  00000+0  59852-4 0  9996
2 57924  43.0012 239.0876 0001278 245.9792 114.0926 15.27581427148761
STARLINK-30452          
1 57925U 23147N   26148.26877433  .00000570  00000+0  30250-4 0  9991
2 57925  43.0043 236.2068 0002038 262.5925  97.4696 15.27572225148760
STARLINK-30468          
1 57926U 23147P   26148.22587807  .00001597  00000+0  67560-4 0  9995
2 57926  43.0005 239.3013 0001371 284.1132  75.9567 15.27575385148726
STARLINK-30448          
1 57928U 23147R   26147.32460145 -.00000225  00000+0  13524-5 0  9992
2 57928  43.0047 244.5675 0001301 262.5808  97.4896 15.27572607148581
STARLINK-30476          
1 57930U 23147T   26148.05640230  .00132353  00000+0  88358-3 0  9993
2 57930  42.9918 169.0282 0016744 238.5650 121.3582 15.73992324149526
STARLINK-30488          
1 57931U 23147U   26148.30924983  .00000482  00000+0  27027-4 0  9996
2 57931  43.0006 239.0508 0001168 248.3374 111.7353 15.27578399148767
STARLINK-30471          
1 57932U 23147V   26147.62247230 -.00001136  00000+0 -31792-4 0  9997
2 57932  43.0006 239.1034 0001082 276.7918  83.2810 15.27573121148676
STARLINK-30461          
1 57933U 23147W   26148.27247859  .00006838  00000+0  25806-3 0  9997
2 57933  43.0023 235.3829 0001285 261.1511  98.9195 15.27544660148774
STARLINK-30712          
1 57935U 23148A   26147.94626940  .00001042  00000+0  41976-4 0  9994
2 57935  53.1598  15.6814 0001013  96.5406 263.5712 15.34390124150567
STARLINK-30716          
1 57936U 23148B   26147.94586090  .00001773  00000+0  71983-4 0  9998
2 57936  53.1609  16.2945 0001508  65.2977 294.8181 15.30201629150551
STARLINK-30400          
1 57937U 23148C   26148.25001157 -.00007090  00000+0 -20460-3 0  9993
2 57937  53.1601  14.5628 0001269  89.6058 332.6974 15.33524246  5801
STARLINK-30710          
1 57938U 23148D   26147.92728515 -.00003946  00000+0 -10587-3 0  9996
2 57938  53.1613   5.6786 0001548  64.4653 295.6509 15.34353800150690
STARLINK-30714          
1 57939U 23148E   26148.01751588 -.00000024  00000+0  11331-4 0  9996
2 57939  53.1619  16.0114 0001169  99.6005 260.5128 15.30182885150561
STARLINK-30711          
1 57940U 23148F   26148.01432535  .00003628  00000+0  13448-3 0  9998
2 57940  53.1613  16.0126 0001234  92.9266 267.1876 15.30216738150566
