OBJECT_NAME,OBJECT_ID,EPOCH,MEAN_MOTION,ECCENTRICITY,INCLINATION,RA_OF_ASC_NODE,ARG_OF_PERICENTER,MEAN_ANOMALY,EPHEMERIS_TYPE,CLASSIFICATION_TYPE,NORAD_CAT_ID,ELEMENT_SET_NO,REV_AT_EPOCH,BSTAR,MEAN_MOTION_DOT,MEAN_MOTION_DDOT
STARLINK-30428,2023-146R,2026-05-28T06:28:55.813152,15.27578379,.00016675,43.0024,225.0592,273.3872,86.6789,0,U,57906,999,14816,.35733126E-4,.721E-5,0
STARLINK-30482,2023-146S,2026-05-28T06:45:34.784640,15.27590821,.00017864,43.0017,225.1483,260.9112,99.1538,0,U,57907,999,14817,.27868787E-3,.7417E-4,0
STARLINK-30464,2023-146T,2026-05-28T05:07:01.028640,15.27584145,.00011403,42.9946,228.8926,74.1231,285.9746,0,U,57908,999,14811,.52400969E-4,.118E-4,0
STARLINK-30463,2023-146U,2026-05-28T06:56:41.212896,15.27580921,.00013736,42.9998,225.2030,271.1164,88.9530,0,U,57909,999,14816,.1144731E-3,.2889E-4,0
STARLINK-30453,2023-146V,2026-05-28T06:33:20.128032,15.27593617,.00020191,43.0017,221.6827,276.9241,83.1381,0,U,57910,999,14820,-.20635269E-3,-.5939E-4,0
STARLINK-30478,2023-146W,2026-05-28T05:35:15.908064,15.27600460,.00001952,42.9957,224.7755,278.9426,81.1404,0,U,57911,999,14922,-.15860389E-3,-.4626E-4,0
STARLINK-30477,2023-146X,2026-05-28T05:34:07.320288,15.27616920,.00016146,43.0008,221.3699,265.7977,94.2691,0,U,57912,999,14926,.91679764E-3,.25081E-3,0
STARLINK-30450,2023-147A,2026-05-28T06:43:27.873408,15.27583517,.00012666,43.0019,235.4436,195.4350,164.6463,0,U,57913,999,14877,.47806417E-4,.1054E-4,0
STARLINK-30483,2023-147B,2026-05-28T03:55:45.848640,15.27581437,.00010646,43.0037,90.8004,282.3441,77.7291,0,U,57914,999,15046,.36184316E-4,.734E-5,0
STARLINK-30454,2023-147C,2026-05-27T05:48:04.330656,15.27580764,.0000988,42.9900,241.3986,179.8708,180.2144,0,U,57915,999,14861,.67325E-4,.1591E-4,0
STARLINK-30501,2023-147E,2026-05-28T05:24:07.243776,15.27591315,.00007729,43.0008,235.8874,288.4353,71.6415,0,U,57917,999,14878,.63896025E-3,.17368E-3,0
STARLINK-30499,2023-147F,2026-05-28T05:04:14.539296,15.27587249,.00011277,43.0011,91.1252,270.3486,89.7237,0,U,57918,999,15049,.31337652E-3,.8373E-4,0
STARLINK-30496,2023-147G,2026-05-27T07:42:35.141184,15.27575542,.00013691,43.0029,241.1430,269.6521,90.4174,0,U,57919,999,14865,.25872129E-4,.45E-5,0
STARLINK-30485,2023-147H,2026-05-28T07:20:28.690368,15.27572776,.0001652,43.0016,235.6359,237.0214,123.0479,0,U,57920,999,14880,.29539099E-4,.551E-5,0
STARLINK-30492,2023-147J,2026-05-28T07:29:43.749024,15.27572392,.00020517,43.0054,235.6821,271.4952,88.5665,0,U,57921,999,14877,.1199943E-5,-.229E-5,0
STARLINK-30440,2023-147L,2026-05-28T06:23:19.453632,15.27576604,.00004448,42.9974,236.1841,194.1795,165.9045,0,U,57923,999,14879,.65784028E-4,.1549E-4,0
STARLINK-30487,2023-147M,2026-05-28T07:34:33.943296,15.27581427,.00012789,43.0012,239.0876,245.9792,114.0926,0,U,57924,999,14876,.59852298E-4,.1385E-4,0
STARLINK-30452,2023-147N,2026-05-28T06:27:02.102112,15.27572225,.0002038,43.0043,236.2068,262.5925,97.4696,0,U,57925,999,14876,.30249747E-4,.57E-5,0
STARLINK-30468,2023-147P,2026-05-28T05:25:15.865248,15.27575385,.00013713,43.0005,239.3013,284.1132,75.9567,0,U,57926,999,14872,.67559515E-4,.1597E-4,0
STARLINK-30448,2023-147R,2026-05-27T07:47:25.565280,15.27572607,.00013014,43.0047,244.5675,262.5808,97.4896,0,U,57928,999,14858,.1352374E-5,-.225E-5,0
STARLINK-30476,2023-147T,2026-05-28T01:21:13.158720,15.73992324,.00167447,42.9918,169.0282,238.5650,121.3582,0,U,57930,999,14952,.88357815E-3,.132353E-2,0
STARLINK-30488,2023-147U,2026-05-28T07:25:19.185312,15.27578399,.00011682,43.0006,239.0508,248.3374,111.7353,0,U,57931,999,14876,.27026915E-4,.482E-5,0
STARLINK-30471,2023-147V,2026-05-27T14:56:21.606720,15.27573121,.00010829,43.0006,239.1034,276.7918,83.2810,0,U,57932,999,14867,-.31791644E-4,-.1136E-4,0
STARLINK-30461,2023-147W,2026-05-28T06:32:22.150176,15.27544660,.00012854,43.0023,235.3829,261.1511,98.9195,0,U,57933,999,14877,.25806263E-3,.6838E-4,0
STARLINK-30712,2023-148A,2026-05-27T22:42:37.676160,15.34390124,.00010134,53.1598,15.6814,96.5406,263.5712,0,U,57935,999,15056,.41976324E-4,.1042E-4,0
STARLINK-30716,2023-148B,2026-05-27T22:42:02.381760,15.30201629,.00015081,53.1609,16.2945,65.2977,294.8181,0,U,57936,999,15055,.71983161E-4,.1773E-4,0
STARLINK-30400,2023-148C,2026-05-28T06:00:00.999648,15.33524246,.00012698,53.1601,14.5628,89.6058,332.6974,0,U,57937,999,580,-.20459532E-3,-.709E-4,0
STARLINK-30710,2023-148D,2026-05-27T22:15:17.436960,15.34353800,.0001548,53.1613,5.6786,64.4653,295.6509,0,U,57938,999,15069,-.10587E-3,-.3946E-4,0
STARLINK-30714,2023-148E,2026-05-28T00:25:13.372032,15.30182885,.00011698,53.1619,16.0114,99.6005,260.5128,0,U,57939,999,15056,.11330823E-4,-.24E-6,0
STARLINK-30711,2023-148F,2026-05-28T00:20:37.710240,15.30216738,.00012345,53.1613,16.0126,92.9266,267.1876,0,U,57940,999,15056,.13448475E-3,.3628E-4,0
